{"type": "FeatureCollection", "features": [ {"type": "Feature", "properties": {"norad_id": 33492, "name": "GOSAT (IBUKI)", "group": "resource", "lat": 80.91653150685198, "lon": -20.45573177920639, "alt_km": 660.7944106374225, "timestamp": "2025-12-14T07:33:19.134606+00:00", "meta": {"OBJECT_NAME": "GOSAT (IBUKI)", "OBJECT_ID": "2009-002A", "EPOCH": "2025-12-13T13:07:41.153376", "MEAN_MOTION": 14.67556859, "ECCENTRICITY": 9.204e-05, "INCLINATION": 98.0769, "RA_OF_ASC_NODE": 96.139, "ARG_OF_PERICENTER": 92.0937, "MEAN_ANOMALY": 268.0373, "EPHEMERIS_TYPE": 0, "CLASSIFICATION_TYPE": "U", "NORAD_CAT_ID": 33492, "ELEMENT_SET_NO": 999, "REV_AT_EPOCH": 90423, "BSTAR": 0.0002334962, "MEAN_MOTION_DOT": 1.277e-05, "MEAN_MOTION_DDOT": 0}, "tle": {"line1": "1 33492U 09002A   25347.54700409  .00001277  00000+0  23350-3 0  9994", "line2": "2 33492  98.0769  96.1390 0000920  92.0937 268.0373 14.67556859904234"}}, "geometry": {"type": "Point", "coordinates": [-20.45573177920639, 80.91653150685198]}}, {"type": "Feature", "properties": {"norad_id": 35681, "name": "DEIMOS-1", "group": "resource", "lat": -33.54468412995256, "lon": -36.31210372546158, "alt_km": 652.9024918370988, "timestamp": "2025-12-14T07:33:19.134617+00:00", "meta": {"OBJECT_NAME": "DEIMOS-1", "OBJECT_ID": "2009-041A", "EPOCH": "2025-12-13T15:56:08.805120", "MEAN_MOTION": 14.74955029, "ECCENTRICITY": 0.00027307, "INCLINATION": 97.7149, "RA_OF_ASC_NODE": 148.2242, "ARG_OF_PERICENTER": 78.398, "MEAN_ANOMALY": 281.7536, "EPHEMERIS_TYPE": 0, "CLASSIFICATION_TYPE": "U", "NORAD_CAT_ID": 35681, "ELEMENT_SET_NO": 999, "REV_AT_EPOCH": 87953, "BSTAR": 0.00017069353, "MEAN_MOTION_DOT": 1.1e-05, "MEAN_MOTION_DDOT": 0}, "tle": {"line1": "1 35681U 09041A   25347.66399080  .00001100  00000+0  17069-3 0  9996", "line2": "2 35681  97.7149 148.2242 0002730  78.3980 281.7536 14.74955029879532"}}, "geometry": {"type": "Point", "coordinates": [-36.31210372546158, -33.54468412995256]}}, {"type": "Feature", "properties": {"norad_id": 35682, "name": "DUBAISAT-1", "group": "resource", "lat": 32.866984114800125, "lon": -55.83011583962765, "alt_km": 650.8007497872604, "timestamp": "2025-12-14T07:33:19.134629+00:00", "meta": {"OBJECT_NAME": "DUBAISAT-1", "OBJECT_ID": "2009-041B", "EPOCH": "2025-12-13T08:05:32.518752", "MEAN_MOTION": 14.74607844, "ECCENTRICITY": 0.00095229, "INCLINATION": 97.9784, "RA_OF_ASC_NODE": 118.0079, "ARG_OF_PERICENTER": 312.5561, "MEAN_ANOMALY": 47.4843, "EPHEMERIS_TYPE": 0, "CLASSIFICATION_TYPE": "U", "NORAD_CAT_ID": 35682, "ELEMENT_SET_NO": 999, "REV_AT_EPOCH": 87770, "BSTAR": 0.00034970241, "MEAN_MOTION_DOT": 2.282e-05, "MEAN_MOTION_DDOT": 0}, "tle": {"line1": "1 35682U 09041B   25347.33718193  .00002282  00000+0  34970-3 0  9993", "line2": "2 35682  97.9784 118.0079 0009522 312.5561  47.4843 14.74607844877701"}}, "geometry": {"type": "Point", "coordinates": [-55.83011583962765, 32.866984114800125]}}, {"type": "Feature", "properties": {"norad_id": 35931, "name": "OCEANSAT-2", "group": "resource", "lat": -76.76347704190754, "lon": 130.82620474097226, "alt_km": 911.5980575952444, "timestamp": "2025-12-14T07:33:19.134640+00:00", "meta": {"OBJECT_NAME": "OCEANSAT-2", "OBJECT_ID": "2009-051A", "EPOCH": "2025-12-13T14:52:38.887392", "MEAN_MOTION": 13.99624463, "ECCENTRICITY": 0.0016199, "INCLINATION": 98.2222, "RA_OF_ASC_NODE": 348.1313, "ARG_OF_PERICENTER": 42.7512, "MEAN_ANOMALY": 317.4912, "EPHEMERIS_TYPE": 0, "CLASSIFICATION_TYPE": "U", "NORAD_CAT_ID": 35931, "ELEMENT_SET_NO": 999, "REV_AT_EPOCH": 85337, "BSTAR": -6.7474145e-05, "MEAN_MOTION_DOT": -1.36e-06, "MEAN_MOTION_DDOT": 0}, "tle": {"line1": "1 35931U 09051A   25347.61989453 -.00000136  00000+0 -67474-4 0  9995", "line2": "2 35931  98.2222 348.1313 0016199  42.7512 317.4912 13.99624463853378"}}, "geometry": {"type": "Point", "coordinates": [130.82620474097226, -76.76347704190754]}}, {"type": "Feature", "properties": {"norad_id": 35946, "name": "WORLDVIEW-2 (WV-2)", "group": "resource", "lat": -55.86346072496362, "lon": -133.3329553688603, "alt_km": 776.6913235399034, "timestamp": "2025-12-14T07:33:19.134652+00:00", "meta": {"OBJECT_NAME": "WORLDVIEW-2 (WV-2)", "OBJECT_ID": "2009-055A", "EPOCH": "2025-12-13T15:25:31.346688", "MEAN_MOTION": 14.37724433, "ECCENTRICITY": 0.00051597, "INCLINATION": 98.4788, "RA_OF_ASC_NODE": 58.7144, "ARG_OF_PERICENTER": 68.4854, "MEAN_ANOMALY": 291.6882, "EPHEMERIS_TYPE": 0, "CLASSIFICATION_TYPE": "U", "NORAD_CAT_ID": 35946, "ELEMENT_SET_NO": 999, "REV_AT_EPOCH": 84898, "BSTAR": 9.6546879e-05, "MEAN_MOTION_DOT": 2.47e-06, "MEAN_MOTION_DDOT": 0}, "tle": {"line1": "1 35946U 09055A   25347.64272392  .00000247  00000+0  96547-4 0  9999", "line2": "2 35946  98.4788  58.7144 0005159  68.4854 291.6882 14.37724433848988"}}, "geometry": {"type": "Point", "coordinates": [-133.3329553688603, -55.86346072496362]}}, {"type": "Feature", "properties": {"norad_id": 36036, "name": "SMOS", "group": "resource", "lat": -74.0476888869291, "lon": -155.37463456831745, "alt_km": 767.3744471502896, "timestamp": "2025-12-14T07:33:19.134662+00:00", "meta": {"OBJECT_NAME": "SMOS", "OBJECT_ID": "2009-059A", "EPOCH": "2025-12-13T11:53:40.754976", "MEAN_MOTION": 14.39742268, "ECCENTRICITY": 0.00010996, "INCLINATION": 98.438, "RA_OF_ASC_NODE": 172.5329, "ARG_OF_PERICENTER": 84.3394, "MEAN_ANOMALY": 275.7919, "EPHEMERIS_TYPE": 0, "CLASSIFICATION_TYPE": "U", "NORAD_CAT_ID": 36036, "ELEMENT_SET_NO": 999, "REV_AT_EPOCH": 84673, "BSTAR": 0.00020408765, "MEAN_MOTION_DOT": 5.96e-06, "MEAN_MOTION_DDOT": 0}, "tle": {"line1": "1 36036U 09059A   25347.49561059  .00000596  00000+0  20409-3 0  9998", "line2": "2 36036  98.4380 172.5329 0001099  84.3394 275.7919 14.39742268846735"}}, "geometry": {"type": "Point", "coordinates": [-155.37463456831745, -74.0476888869291]}}, {"type": "Feature", "properties": {"norad_id": 36110, "name": "YAOGAN-7", "group": "resource", "lat": -35.853711749307244, "lon": -124.07878663863296, "alt_km": 631.7640290786676, "timestamp": "2025-12-14T07:33:19.134673+00:00", "meta": {"OBJECT_NAME": "YAOGAN-7", "OBJECT_ID": "2009-069A", "EPOCH": "2025-12-13T15:28:04.382688", "MEAN_MOTION": 14.7773432, "ECCENTRICITY": 0.00233703, "INCLINATION": 98.0299, "RA_OF_ASC_NODE": 229.3983, "ARG_OF_PERICENTER": 278.217, "MEAN_ANOMALY": 81.639, "EPHEMERIS_TYPE": 0, "CLASSIFICATION_TYPE": "U", "NORAD_CAT_ID": 36110, "ELEMENT_SET_NO": 999, "REV_AT_EPOCH": 86222, "BSTAR": 0.00014262467, "MEAN_MOTION_DOT": 9.73e-06, "MEAN_MOTION_DDOT": 0}, "tle": {"line1": "1 36110U 09069A   25347.64449517  .00000973  00000+0  14262-3 0  9992", "line2": "2 36110  98.0299 229.3983 0023370 278.2170  81.6390 14.77734320862223"}}, "geometry": {"type": "Point", "coordinates": [-124.07878663863296, -35.853711749307244]}}, {"type": "Feature", "properties": {"norad_id": 36605, "name": "TANDEM-X", "group": "resource", "lat": 80.28807856269351, "lon": -56.15731838480542, "alt_km": 499.65972987339956, "timestamp": "2025-12-14T07:33:19.134684+00:00", "meta": {"OBJECT_NAME": "TANDEM-X", "OBJECT_ID": "2010-030A", "EPOCH": "2025-12-13T13:47:56.200128", "MEAN_MOTION": 15.19152153, "ECCENTRICITY": 0.00019496, "INCLINATION": 97.4458, "RA_OF_ASC_NODE": 352.9445, "ARG_OF_PERICENTER": 84.6239, "MEAN_ANOMALY": 275.5218, "EPHEMERIS_TYPE": 0, "CLASSIFICATION_TYPE": "U", "NORAD_CAT_ID": 36605, "ELEMENT_SET_NO": 999, "REV_AT_EPOCH": 85846, "BSTAR": 0.0001209332, "MEAN_MOTION_DOT": 2.473e-05, "MEAN_MOTION_DDOT": 0}, "tle": {"line1": "1 36605U 10030A   25347.57495602  .00002473  00000+0  12093-3 0  9996", "line2": "2 36605  97.4458 352.9445 0001949  84.6239 275.5218 15.19152153858460"}}, "geometry": {"type": "Point", "coordinates": [-56.15731838480542, 80.28807856269351]}}, {"type": "Feature", "properties": {"norad_id": 36795, "name": "CARTOSAT-2B", "group": "resource", "lat": -74.5983159051113, "lon": -172.4841225354464, "alt_km": 649.7832772537568, "timestamp": "2025-12-14T07:33:19.134695+00:00", "meta": {"OBJECT_NAME": "CARTOSAT-2B", "OBJECT_ID": "2010-035A", "EPOCH": "2025-12-13T15:46:57.572256", "MEAN_MOTION": 14.78728744, "ECCENTRICITY": 0.00130675, "INCLINATION": 97.7853, "RA_OF_ASC_NODE": 36.6581, "ARG_OF_PERICENTER": 73.6224, "MEAN_ANOMALY": 286.6423, "EPHEMERIS_TYPE": 0, "CLASSIFICATION_TYPE": "U", "NORAD_CAT_ID": 36795, "ELEMENT_SET_NO": 999, "REV_AT_EPOCH": 83243, "BSTAR": 0.00025753232, "MEAN_MOTION_DOT": 1.843e-05, "MEAN_MOTION_DDOT": 0}, "tle": {"line1": "1 36795U 10035A   25347.65761079  .00001843  00000+0  25753-3 0  9991", "line2": "2 36795  97.7853  36.6581 0013067  73.6224 286.6423 14.78728744832434"}}, "geometry": {"type": "Point", "coordinates": [-172.4841225354464, -74.5983159051113]}}, {"type": "Feature", "properties": {"norad_id": 36834, "name": "YAOGAN-10", "group": "resource", "lat": 9.932378256822856, "lon": 6.728171341051825, "alt_km": 616.0275439737916, "timestamp": "2025-12-14T07:33:19.134706+00:00", "meta": {"OBJECT_NAME": "YAOGAN-10", "OBJECT_ID": "2010-038A", "EPOCH": "2025-12-13T15:58:02.887680", "MEAN_MOTION": 14.84613482, "ECCENTRICITY": 0.00014906, "INCLINATION": 97.9148, "RA_OF_ASC_NODE": 7.4794, "ARG_OF_PERICENTER": 79.4738, "MEAN_ANOMALY": 61.5171, "EPHEMERIS_TYPE": 0, "CLASSIFICATION_TYPE": "U", "NORAD_CAT_ID": 36834, "ELEMENT_SET_NO": 999, "REV_AT_EPOCH": 82967, "BSTAR": 0.00031876937, "MEAN_MOTION_DOT": 2.64e-05, "MEAN_MOTION_DDOT": 0}, "tle": {"line1": "1 36834U 10038A   25347.66531120  .00002640  00000+0  31877-3 0  9991", "line2": "2 36834  97.9148   7.4794 0001490  79.4738  61.5171 14.84613482829671"}}, "geometry": {"type": "Point", "coordinates": [6.728171341051825, 9.932378256822856]}}]}